DELTA 2 R/B(1)          
1 20453U 90008B   25354.05014435  .00032049  00000+0  50335-3 0  9998
2 20453  35.6080 333.3049 0111184 244.9384 113.9773 15.45778952913763
SL-14 R/B               
1 20511U 90018B   25353.90384644  .00000369  00000+0  43412-4 0  9998
2 20511  82.5215 297.6685 0016383   0.3373 359.7849 14.82053578910765
HST                     
1 20580U 90037B   25352.01685448  .00005616  00000+0  19114-3 0  9993
2 20580  28.4674 236.5696 0001951 306.2349  53.8065 15.28122551760808
SL-16 R/B               
1 20625U 90046B   25354.02722738 -.00000281  00000+0 -12021-3 0  9995
2 20625  70.9992 105.2176 0012020  60.3752 299.8567 14.14999054837126
COSMOS 2084             
1 20663U 90055A   25354.07590914  .00001753  00000+0  13590-3 0  9996
2 20663  62.7898 246.9957 0030538 175.6587 184.4784 15.05059399924332
SL-6 R/B(2)             
1 20666U 90055D   25353.88577609  .00001429  00000+0  11988-3 0  9992
2 20666  62.7810 165.1338 0013471 313.7550  46.2433 15.03103714926197
SL-8 R/B                
1 20775U 90078B   25354.00292934  .00013508  00000+0  41744-3 0  9992
2 20775  82.9047 322.8067 0370837 281.4566  74.5229 14.86206706797452
SL-8 R/B                
1 21088U 91006B   25354.09690779  .00000110  00000+0  95604-4 0  9990
2 21088  82.9420 229.2405 0021174 257.9356 211.6518 13.77491316753115
OKEAN-3                 
1 21397U 91039A   25353.60076446  .00002228  00000+0  15833-3 0  9991
2 21397  82.5178  54.4073 0013436 239.9462 120.0432 15.04163296852992
COSMOS 2151             
1 21422U 91042A   25354.16276397  .00001406  00000+0  11167-3 0  9996
2 21422  82.4962 160.3496 0011949 334.0939  25.9685 14.99712131851274
