CCSDS_OMM_VERS = 2.0
CREATION_DATE  = 
ORIGINATOR     = 

OBJECT_NAME    = DELTA 2 R/B(1)
OBJECT_ID      = 1990-008B
CENTER_NAME    = EARTH
REF_FRAME      = TEME
TIME_SYSTEM    = UTC
MEAN_ELEMENT_THEORY = SGP/SGP4

EPOCH          = 2025-12-20T01:12:12.471840
MEAN_MOTION    = 15.45778952
ECCENTRICITY   = .0111184
INCLINATION    = 35.6080
RA_OF_ASC_NODE = 333.3049
ARG_OF_PERICENTER = 244.9384
MEAN_ANOMALY   = 113.9773

EPHEMERIS_TYPE = 0
CLASSIFICATION_TYPE = U
NORAD_CAT_ID   = 20453
ELEMENT_SET_NO = 999
REV_AT_EPOCH   = 91376
BSTAR          = .50335E-3
MEAN_MOTION_DOT = .32049E-3
MEAN_MOTION_DDOT = 0

CCSDS_OMM_VERS = 2.0
CREATION_DATE  = 
ORIGINATOR     = 

OBJECT_NAME    = SL-14 R/B
OBJECT_ID      = 1990-018B
CENTER_NAME    = EARTH
REF_FRAME      = TEME
TIME_SYSTEM    = UTC
MEAN_ELEMENT_THEORY = SGP/SGP4

EPOCH          = 2025-12-19T21:41:32.332416
MEAN_MOTION    = 14.82053578
ECCENTRICITY   = .0016383
INCLINATION    = 82.5215
RA_OF_ASC_NODE = 297.6685
ARG_OF_PERICENTER = 0.3373
MEAN_ANOMALY   = 359.7849

EPHEMERIS_TYPE = 0
CLASSIFICATION_TYPE = U
NORAD_CAT_ID   = 20511
ELEMENT_SET_NO = 999
REV_AT_EPOCH   = 91076
BSTAR          = .43412E-4
MEAN_MOTION_DOT = .369E-5
MEAN_MOTION_DDOT = 0

CCSDS_OMM_VERS = 2.0
CREATION_DATE  = 
ORIGINATOR     = 

OBJECT_NAME    = HST
OBJECT_ID      = 1990-037B
CENTER_NAME    = EARTH
REF_FRAME      = TEME
TIME_SYSTEM    = UTC
MEAN_ELEMENT_THEORY = SGP/SGP4

EPOCH          = 2025-12-18T00:24:16.227072
MEAN_MOTION    = 15.28122551
ECCENTRICITY   = .0001951
INCLINATION    = 28.4674
RA_OF_ASC_NODE = 236.5696
ARG_OF_PERICENTER = 306.2349
MEAN_ANOMALY   = 53.8065

EPHEMERIS_TYPE = 0
CLASSIFICATION_TYPE = U
NORAD_CAT_ID   = 20580
ELEMENT_SET_NO = 999
REV_AT_EPOCH   = 76080
BSTAR          = .19114E-3
MEAN_MOTION_DOT = .5616E-4
MEAN_MOTION_DDOT = 0

CCSDS_OMM_VERS = 2.0
CREATION_DATE  = 
ORIGINATOR     = 

OBJECT_NAME    = SL-16 R/B
OBJECT_ID      = 1990-046B
CENTER_NAME    = EARTH
REF_FRAME      = TEME
TIME_SYSTEM    = UTC
MEAN_ELEMENT_THEORY = SGP/SGP4

EPOCH          = 2025-12-20T00:39:12.445632
MEAN_MOTION    = 14.14999054
ECCENTRICITY   = .001202
INCLINATION    = 70.9992
RA_OF_ASC_NODE = 105.2176
ARG_OF_PERICENTER = 60.3752
MEAN_ANOMALY   = 299.8567

EPHEMERIS_TYPE = 0
CLASSIFICATION_TYPE = U
NORAD_CAT_ID   = 20625
ELEMENT_SET_NO = 999
REV_AT_EPOCH   = 83712
BSTAR          = -.12021E-3
MEAN_MOTION_DOT = -.281E-5
MEAN_MOTION_DDOT = 0

CCSDS_OMM_VERS = 2.0
CREATION_DATE  = 
ORIGINATOR     = 

OBJECT_NAME    = COSMOS 2084
OBJECT_ID      = 1990-055A
CENTER_NAME    = EARTH
REF_FRAME      = TEME
TIME_SYSTEM    = UTC
MEAN_ELEMENT_THEORY = SGP/SGP4

EPOCH          = 2025-12-20T01:49:18.549696
MEAN_MOTION    = 15.05059399
ECCENTRICITY   = .0030538
INCLINATION    = 62.7898
RA_OF_ASC_NODE = 246.9957
ARG_OF_PERICENTER = 175.6587
MEAN_ANOMALY   = 184.4784

EPHEMERIS_TYPE = 0
CLASSIFICATION_TYPE = U
NORAD_CAT_ID   = 20663
ELEMENT_SET_NO = 999
REV_AT_EPOCH   = 92433
BSTAR          = .1359E-3
MEAN_MOTION_DOT = .1753E-4
MEAN_MOTION_DDOT = 0

CCSDS_OMM_VERS = 2.0
CREATION_DATE  = 
ORIGINATOR     = 

OBJECT_NAME    = SL-6 R/B(2)
OBJECT_ID      = 1990-055D
CENTER_NAME    = EARTH
REF_FRAME      = TEME
TIME_SYSTEM    = UTC
MEAN_ELEMENT_THEORY = SGP/SGP4

EPOCH          = 2025-12-19T21:15:31.054176
MEAN_MOTION    = 15.03103714
ECCENTRICITY   = .0013471
INCLINATION    = 62.7810
RA_OF_ASC_NODE = 165.1338
ARG_OF_PERICENTER = 313.7550
MEAN_ANOMALY   = 46.2433

EPHEMERIS_TYPE = 0
CLASSIFICATION_TYPE = U
NORAD_CAT_ID   = 20666
ELEMENT_SET_NO = 999
REV_AT_EPOCH   = 92619
BSTAR          = .11988E-3
MEAN_MOTION_DOT = .1429E-4
MEAN_MOTION_DDOT = 0

CCSDS_OMM_VERS = 2.0
CREATION_DATE  = 
ORIGINATOR     = 

OBJECT_NAME    = SL-8 R/B
OBJECT_ID      = 1990-078B
CENTER_NAME    = EARTH
REF_FRAME      = TEME
TIME_SYSTEM    = UTC
MEAN_ELEMENT_THEORY = SGP/SGP4

EPOCH          = 2025-12-20T00:04:13.094976
MEAN_MOTION    = 14.86206706
ECCENTRICITY   = .0370837
INCLINATION    = 82.9047
RA_OF_ASC_NODE = 322.8067
ARG_OF_PERICENTER = 281.4566
MEAN_ANOMALY   = 74.5229

EPHEMERIS_TYPE = 0
CLASSIFICATION_TYPE = U
NORAD_CAT_ID   = 20775
ELEMENT_SET_NO = 999
REV_AT_EPOCH   = 79745
BSTAR          = .41744E-3
MEAN_MOTION_DOT = .13508E-3
MEAN_MOTION_DDOT = 0

CCSDS_OMM_VERS = 2.0
CREATION_DATE  = 
ORIGINATOR     = 

OBJECT_NAME    = SL-8 R/B
OBJECT_ID      = 1991-006B
CENTER_NAME    = EARTH
REF_FRAME      = TEME
TIME_SYSTEM    = UTC
MEAN_ELEMENT_THEORY = SGP/SGP4

EPOCH          = 2025-12-20T02:19:32.833056
MEAN_MOTION    = 13.77491316
ECCENTRICITY   = .0021174
INCLINATION    = 82.9420
RA_OF_ASC_NODE = 229.2405
ARG_OF_PERICENTER = 257.9356
MEAN_ANOMALY   = 211.6518

EPHEMERIS_TYPE = 0
CLASSIFICATION_TYPE = U
NORAD_CAT_ID   = 21088
ELEMENT_SET_NO = 999
REV_AT_EPOCH   = 75311
BSTAR          = .95604E-4
MEAN_MOTION_DOT = .11E-5
MEAN_MOTION_DDOT = 0

CCSDS_OMM_VERS = 2.0
CREATION_DATE  = 
ORIGINATOR     = 

OBJECT_NAME    = OKEAN-3
OBJECT_ID      = 1991-039A
CENTER_NAME    = EARTH
REF_FRAME      = TEME
TIME_SYSTEM    = UTC
MEAN_ELEMENT_THEORY = SGP/SGP4

EPOCH          = 2025-12-19T14:25:06.049344
MEAN_MOTION    = 15.04163296
ECCENTRICITY   = .0013436
INCLINATION    = 82.5178
RA_OF_ASC_NODE = 54.4073
ARG_OF_PERICENTER = 239.9462
MEAN_ANOMALY   = 120.0432

EPHEMERIS_TYPE = 0
CLASSIFICATION_TYPE = U
NORAD_CAT_ID   = 21397
ELEMENT_SET_NO = 999
REV_AT_EPOCH   = 85299
BSTAR          = .15833E-3
MEAN_MOTION_DOT = .2228E-4
MEAN_MOTION_DDOT = 0

CCSDS_OMM_VERS = 2.0
CREATION_DATE  = 
ORIGINATOR     = 

OBJECT_NAME    = COSMOS 2151
OBJECT_ID      = 1991-042A
CENTER_NAME    = EARTH
REF_FRAME      = TEME
TIME_SYSTEM    = UTC
MEAN_ELEMENT_THEORY = SGP/SGP4

EPOCH          = 2025-12-20T03:54:22.807008
MEAN_MOTION    = 14.99712131
ECCENTRICITY   = .0011949
INCLINATION    = 82.4962
RA_OF_ASC_NODE = 160.3496
ARG_OF_PERICENTER = 334.0939
MEAN_ANOMALY   = 25.9685

EPHEMERIS_TYPE = 0
CLASSIFICATION_TYPE = U
NORAD_CAT_ID   = 21422
ELEMENT_SET_NO = 999
REV_AT_EPOCH   = 85127
BSTAR          = .11167E-3
MEAN_MOTION_DOT = .1406E-4
MEAN_MOTION_DDOT = 0

